STARLINK-6293
1 57354U 23099AC  26090.75850059  .00251643  00000+0  16379-1 0  9990
2 57354  43.0004 116.2563 0001234 342.7062  17.3739 15.06037780149589
